[{"OBJECT_NAME":"STARLINK-1347","OBJECT_ID":"2020-025BH","EPOCH":"2026-03-09T07:06:35.755488","MEAN_MOTION":15.5392029,"ECCENTRICITY":0.00059618,"INCLINATION":53.0473,"RA_OF_ASC_NODE":31.3863,"ARG_OF_PERICENTER":61.4804,"MEAN_ANOMALY":298.6806,"EPHEMERIS_TYPE":0,"CLASSIFICATION_TYPE":"U","NORAD_CAT_ID":45586,"ELEMENT_SET_NO":999,"REV_AT_EPOCH":32610,"BSTAR":0.001568397,"MEAN_MOTION_DOT":0.00103845,"MEAN_MOTION_DDOT":0},{"OBJECT_NAME":"STARLINK-1646","OBJECT_ID":"2020-062AC","EPOCH":"2026-03-09T22:32:49.520256","MEAN_MOTION":15.55410621,"ECCENTRICITY":0.00055037,"INCLINATION":53.0472,"RA_OF_ASC_NODE":334.0562,"ARG_OF_PERICENTER":134.745,"MEAN_ANOMALY":225.4009,"EPHEMERIS_TYPE":0,"CLASSIFICATION_TYPE":"U","NORAD_CAT_ID":46351,"ELEMENT_SET_NO":999,"REV_AT_EPOCH":30494,"BSTAR":0.0018630544,"MEAN_MOTION_DOT":0.00130817,"MEAN_MOTION_DDOT":0}]
